{
  "type": "FeatureCollection",
  "features": [
    {
      "type": "Feature",
      "properties": {
        "norad_id": 66565,
        "name": "STARLINK-35893",
        "group": "last-30-days",
        "lat": -42.53032705457002,
        "lon": 73.56237776730177,
        "alt_km": 392.1669246534484,
        "timestamp": "2025-12-07T05:38:08.685038+00:00",
        "meta_object_name": "STARLINK-35893",
        "meta_object_id": "2025-268J",
        "meta_epoch": "2025-12-06T14:00:01.999872",
        "meta_mean_motion": 15.62132226,
        "meta_eccentricity": 0.00010483,
        "meta_inclination": 43,
        "meta_ra_of_asc_node": 157.2974,
        "meta_arg_of_pericenter": 273.6039,
        "meta_mean_anomaly": 299.3163,
        "meta_ephemeris_type": 0,
        "meta_classification_type": "U",
        "meta_norad_cat_id": 66565,
        "meta_element_set_no": 999,
        "meta_rev_at_epoch": 368,
        "meta_bstar": -0.026548548,
        "meta_mean_motion_dot": -0.02090255,
        "meta_mean_motion_ddot": 0,
        "tle_line1": "1 66565U 25268J   25340.58335648 -.02090255  00000+0 -26549-1 0  9998",
        "tle_line2": "2 66565  43.0000 157.2974 0001048 273.6039 299.3163 15.62132226  3685"
      },
      "geometry": {
        "type": "Point",
        "coordinates": [
          73.56237776730177,
          -42.53032705457002
        ]
      }
    },
    {
      "type": "Feature",
      "properties": {
        "norad_id": 66566,
        "name": "STARLINK-35871",
        "group": "last-30-days",
        "lat": -42.26151322567766,
        "lon": 76.21952919105212,
        "alt_km": 391.63899004790983,
        "timestamp": "2025-12-07T05:38:08.685048+00:00",
        "meta_object_name": "STARLINK-35871",
        "meta_object_id": "2025-268K",
        "meta_epoch": "2025-12-06T14:00:01.999872",
        "meta_mean_motion": 15.62104823,
        "meta_eccentricity": 0.00014513,
        "meta_inclination": 43.0001,
        "meta_ra_of_asc_node": 157.2926,
        "meta_arg_of_pericenter": 259.7293,
        "meta_mean_anomaly": 315.0649,
        "meta_ephemeris_type": 0,
        "meta_classification_type": "U",
        "meta_norad_cat_id": 66566,
        "meta_element_set_no": 999,
        "meta_rev_at_epoch": 368,
        "meta_bstar": -0.025245452,
        "meta_mean_motion_dot": -0.01998809,
        "meta_mean_motion_ddot": 0,
        "tle_line1": "1 66566U 25268K   25340.58335648 -.01998809  00000+0 -25245-1 0  9992",
        "tle_line2": "2 66566  43.0001 157.2926 0001451 259.7293 315.0649 15.62104823  3686"
      },
      "geometry": {
        "type": "Point",
        "coordinates": [
          76.21952919105212,
          -42.26151322567766
        ]
      }
    },
    {
      "type": "Feature",
      "properties": {
        "norad_id": 66567,
        "name": "STARLINK-35825",
        "group": "last-30-days",
        "lat": -41.944228318086004,
        "lon": 78.75895253677798,
        "alt_km": 391.6763796414616,
        "timestamp": "2025-12-07T05:38:08.685058+00:00",
        "meta_object_name": "STARLINK-35825",
        "meta_object_id": "2025-268L",
        "meta_epoch": "2025-12-06T14:00:01.999872",
        "meta_mean_motion": 15.62106177,
        "meta_eccentricity": 0.00013892,
        "meta_inclination": 43,
        "meta_ra_of_asc_node": 157.288,
        "meta_arg_of_pericenter": 260.8347,
        "meta_mean_anomaly": 315.8765,
        "meta_ephemeris_type": 0,
        "meta_classification_type": "U",
        "meta_norad_cat_id": 66567,
        "meta_element_set_no": 999,
        "meta_rev_at_epoch": 368,
        "meta_bstar": -0.025269017,
        "meta_mean_motion_dot": -0.02000492,
        "meta_mean_motion_ddot": 0,
        "tle_line1": "1 66567U 25268L   25340.58335648 -.02000492  00000+0 -25269-1 0  9992",
        "tle_line2": "2 66567  43.0000 157.2880 0001389 260.8347 315.8765 15.62106177  3689"
      },
      "geometry": {
        "type": "Point",
        "coordinates": [
          78.75895253677798,
          -41.944228318086004
        ]
      }
    },
    {
      "type": "Feature",
      "properties": {
        "norad_id": 66568,
        "name": "STARLINK-35803",
        "group": "last-30-days",
        "lat": -41.57036721358545,
        "lon": 81.27678697095244,
        "alt_km": 391.70018040774994,
        "timestamp": "2025-12-07T05:38:08.685070+00:00",
        "meta_object_name": "STARLINK-35803",
        "meta_object_id": "2025-268M",
        "meta_epoch": "2025-12-06T14:00:01.999872",
        "meta_mean_motion": 15.62104987,
        "meta_eccentricity": 0.00014092,
        "meta_inclination": 42.9999,
        "meta_ra_of_asc_node": 157.2829,
        "meta_arg_of_pericenter": 256.5957,
        "meta_mean_anomaly": 322.0311,
        "meta_ephemeris_type": 0,
        "meta_classification_type": "U",
        "meta_norad_cat_id": 66568,
        "meta_element_set_no": 999,
        "meta_rev_at_epoch": 368,
        "meta_bstar": -0.025220579,
        "meta_mean_motion_dot": -0.01997062,
        "meta_mean_motion_ddot": 0,
        "tle_line1": "1 66568U 25268M   25340.58335648 -.01997062  00000+0 -25221-1 0  9998",
        "tle_line2": "2 66568  42.9999 157.2829 0001409 256.5957 322.0311 15.62104987  3684"
      },
      "geometry": {
        "type": "Point",
        "coordinates": [
          81.27678697095244,
          -41.57036721358545
        ]
      }
    },
    {
      "type": "Feature",
      "properties": {
        "norad_id": 66569,
        "name": "STARLINK-35835",
        "group": "last-30-days",
        "lat": -41.14323752481151,
        "lon": 83.75740678199386,
        "alt_km": 391.7048434725684,
        "timestamp": "2025-12-07T05:38:08.685081+00:00",
        "meta_object_name": "STARLINK-35835",
        "meta_object_id": "2025-268N",
        "meta_epoch": "2025-12-06T14:00:01.999872",
        "meta_mean_motion": 15.62104238,
        "meta_eccentricity": 0.00013888,
        "meta_inclination": 42.9998,
        "meta_ra_of_asc_node": 157.2783,
        "meta_arg_of_pericenter": 257.6896,
        "meta_mean_anomaly": 322.8559,
        "meta_ephemeris_type": 0,
        "meta_classification_type": "U",
        "meta_norad_cat_id": 66569,
        "meta_element_set_no": 999,
        "meta_rev_at_epoch": 368,
        "meta_bstar": -0.025224621,
        "meta_mean_motion_dot": -0.01997276,
        "meta_mean_motion_ddot": 0,
        "tle_line1": "1 66569U 25268N   25340.58335648 -.01997276  00000+0 -25225-1 0  9990",
        "tle_line2": "2 66569  42.9998 157.2783 0001388 257.6896 322.8559 15.62104238  3684"
      },
      "geometry": {
        "type": "Point",
        "coordinates": [
          83.75740678199386,
          -41.14323752481151
        ]
      }
    },
    {
      "type": "Feature",
      "properties": {
        "norad_id": 66570,
        "name": "STARLINK-35834",
        "group": "last-30-days",
        "lat": -40.66375274116754,
        "lon": 86.20322943287145,
        "alt_km": 391.67223233055665,
        "timestamp": "2025-12-07T05:38:08.685092+00:00",
        "meta_object_name": "STARLINK-35834",
        "meta_object_id": "2025-268P",
        "meta_epoch": "2025-12-06T14:00:01.999872",
        "meta_mean_motion": 15.62103939,
        "meta_eccentricity": 0.00013968,
        "meta_inclination": 43.0001,
        "meta_ra_of_asc_node": 157.2727,
        "meta_arg_of_pericenter": 260.0515,
        "meta_mean_anomaly": 322.4131,
        "meta_ephemeris_type": 0,
        "meta_classification_type": "U",
        "meta_norad_cat_id": 66570,
        "meta_element_set_no": 999,
        "meta_rev_at_epoch": 368,
        "meta_bstar": -0.025234669,
        "meta_mean_motion_dot": -0.01997959,
        "meta_mean_motion_ddot": 0,
        "tle_line1": "1 66570U 25268P   25340.58335648 -.01997959  00000+0 -25235-1 0  9991",
        "tle_line2": "2 66570  43.0001 157.2727 0001396 260.0515 322.4131 15.62103939  3685"
      },
      "geometry": {
        "type": "Point",
        "coordinates": [
          86.20322943287145,
          -40.66375274116754
        ]
      }
    },
    {
      "type": "Feature",
      "properties": {
        "norad_id": 66571,
        "name": "STARLINK-35836",
        "group": "last-30-days",
        "lat": -40.13230209466416,
        "lon": 88.61486246974995,
        "alt_km": 391.6944910837683,
        "timestamp": "2025-12-07T05:38:08.685101+00:00",
        "meta_object_name": "STARLINK-35836",
        "meta_object_id": "2025-268Q",
        "meta_epoch": "2025-12-06T14:00:01.999872",
        "meta_mean_motion": 15.62106091,
        "meta_eccentricity": 0.00013852,
        "meta_inclination": 42.9999,
        "meta_ra_of_asc_node": 157.2681,
        "meta_arg_of_pericenter": 258.7702,
        "meta_mean_anomaly": 325.6098,
        "meta_ephemeris_type": 0,
        "meta_classification_type": "U",
        "meta_norad_cat_id": 66571,
        "meta_element_set_no": 999,
        "meta_rev_at_epoch": 368,
        "meta_bstar": -0.02526045,
        "meta_mean_motion_dot": -0.01999888,
        "meta_mean_motion_ddot": 0,
        "tle_line1": "1 66571U 25268Q   25340.58335648 -.01999888  00000+0 -25260-1 0  9993",
        "tle_line2": "2 66571  42.9999 157.2681 0001385 258.7702 325.6098 15.62106091  3688"
      },
      "geometry": {
        "type": "Point",
        "coordinates": [
          88.61486246974995,
          -40.13230209466416
        ]
      }
    }
  ]
}